NORAD_CAT_ID,OBJECT_NAME,OBJECT_TYPE,EPOCH,MEAN_MOTION,ECCENTRICITY,INCLINATION,RA_OF_ASC_NODE,ARG_OF_PERICENTER,MEAN_ANOMALY,BSTAR,MEAN_MOTION_DOT,MEAN_MOTION_DDOT,TLE_LINE0,TLE_LINE1,TLE_LINE2,SEMIMAJOR_AXIS,PERIOD,APOGEE,PERIGEE,DECAYED
53796.0,STARLINK-4721,PAYLOAD,2023-06-12 19:51:46,15.08835164,0.0001054,53.2184,66.8352,91.4613,268.65,8.9021e-06,-1.46e-06,0.0,0 STARLINK-4721,1 53796U 22111Z   23163.82762475 -.00000146  00000-0  89021-5 0  9990,2 53796  53.2184  66.8352 0001054  91.4613 268.6500 15.08835164 42902,6917.895,95.438,540.489,539.031,0.0
53796.0,STARLINK-4721,PAYLOAD,2023-06-13 02:13:19,15.08838793,0.0001058,53.2184,65.6456,91.6383,268.473,3.7224e-05,3.05e-06,0.0,0 STARLINK-4721,1 53796U 22111Z   23164.09258192  .00000305  00000-0  37224-4 0  9999,2 53796  53.2184  65.6456 0001058  91.6383 268.4730 15.08838793 42199,6917.884,95.438,540.481,539.017,0.0
53796.0,STARLINK-4721,PAYLOAD,2023-06-13 13:21:01,15.0883476,0.0001096,53.2184,63.5647,96.6833,263.4283,4.2577e-05,3.9e-06,0.0,0 STARLINK-4721,1 53796U 22111Z   23164.55626484  .00000390  00000-0  42577-4 0  9994,2 53796  53.2184  63.5647 0001096  96.6833 263.4283 15.08834760 43015,6917.896,95.438,540.52,539.003,0.0
53796.0,STARLINK-4721,PAYLOAD,2023-06-14 11:36:25,15.08834106,0.0001069,53.2181,59.4018,96.0903,264.021,5.8623e-05,6.45e-06,0.0,0 STARLINK-4721,1 53796U 22111Z   23165.48362734  .00000645  00000-0  58623-4 0  9994,2 53796  53.2181  59.4018 0001069  96.0903 264.0210 15.08834106 42403,6917.898,95.438,540.503,539.024,0.0
53796.0,STARLINK-4721,PAYLOAD,2023-06-14 19:33:21,15.08835632,0.0001127,53.2178,57.9147,102.4053,257.7066,3.2448e-05,2.29e-06,0.0,0 STARLINK-4721,1 53796U 22111Z   23165.81482782  .00000229  00000-0  32448-4 0  9992,2 53796  53.2178  57.9147 0001127 102.4053 257.7066 15.08835632 43200,6917.894,95.438,540.538,538.979,0.0
53796.0,STARLINK-4721,PAYLOAD,2023-06-15 11:27:13,15.08796752,0.0001316,53.2175,54.9431,81.4376,278.6765,0.00059439,9.173e-05,0.0,0 STARLINK-4721,1 53796U 22111Z   23166.47724095  .00009173  00000-0  59439-3 0  9996,2 53796  53.2175  54.9431 0001316  81.4376 278.6765 15.08796752 43302,6918.013,95.44,540.788,538.967,0.0
53796.0,STARLINK-4721,PAYLOAD,2023-06-15 16:13:21,15.0884212,0.0001245,53.2175,54.0504,74.3112,285.8017,6.4284e-05,7.35e-06,0.0,0 STARLINK-4721,1 53796U 22111Z   23166.67594504  .00000735  00000-0  64284-4 0  9998,2 53796  53.2175  54.0504 0001245  74.3112 285.8017 15.08842120 42584,6917.874,95.437,540.6,538.878,0.0
53796.0,STARLINK-4721,PAYLOAD,2023-06-16 01:45:39,15.08848062,0.0001074,53.2176,52.2652,94.9396,265.1718,9.2059e-05,1.178e-05,0.0,0 STARLINK-4721,1 53796U 22111Z   23167.07337812  .00001178  00000-0  92059-4 0  9993,2 53796  53.2176  52.2652 0001074  94.9396 265.1718 15.08848062 42648,6917.856,95.437,540.464,538.978,0.0
53796.0,STARLINK-4721,PAYLOAD,2023-06-16 09:42:36,15.08841877,0.0001029,53.2176,50.7773,95.4554,264.6555,-1.1325e-05,-4.68e-06,0.0,0 STARLINK-4721,1 53796U 22111Z   23167.40458409 -.00000468  00000-0 -11325-4 0  9996,2 53796  53.2176  50.7773 0001029  95.4554 264.6555 15.08841877 42692,6917.875,95.437,540.452,539.028,0.0
53796.0,STARLINK-4721,PAYLOAD,2023-06-16 19:14:55,15.08832877,0.0001063,53.2177,48.993,103.817,256.294,-2.6219e-05,-7.05e-06,0.0,0 STARLINK-4721,1 53796U 22111Z   23167.80203092 -.00000705  00000-0 -26219-4 0  9998,2 53796  53.2177  48.9930 0001063 103.8170 256.2940 15.08832877 43509,6917.902,95.438,540.503,539.032,0.0
53796.0,STARLINK-4721,PAYLOAD,2023-06-16 22:25:41,15.0883332,0.0001054,53.2177,48.3988,96.7931,263.3181,-2.145e-05,-6.29e-06,0.0,0 STARLINK-4721,1 53796U 22111Z   23167.93451118 -.00000629  00000-0 -21450-4 0  9993,2 53796  53.2177  48.3988 0001054  96.7931 263.3181 15.08833320 42779,6917.901,95.438,540.495,539.037,0.0
53796.0,STARLINK-4721,PAYLOAD,2023-06-17 11:08:46,15.08818593,0.0001089,53.2176,46.0195,95.6069,264.5047,0.00023779,3.496e-05,0.0,0 STARLINK-4721,1 53796U 22111Z   23168.46443012  .00003496  00000-0  23779-3 0  9994,2 53796  53.2176  46.0195 0001089  95.6069 264.5047 15.08818593 43603,6917.946,95.439,540.564,539.057,0.0
53796.0,STARLINK-4721,PAYLOAD,2023-06-17 17:30:18,15.08840769,0.0001048,53.2176,44.8301,94.3533,265.7579,8.3392e-05,1.04e-05,0.0,0 STARLINK-4721,1 53796U 22111Z   23168.72938368  .00001040  00000-0  83392-4 0  9997,2 53796  53.2176  44.8301 0001048  94.3533 265.7579 15.08840769 42898,6917.878,95.438,540.468,539.018,0.0
53796.0,STARLINK-4721,PAYLOAD,2023-06-17 22:16:28,15.08836067,0.0001015,53.2177,43.9379,96.8066,263.3042,0.00017484,2.496e-05,0.0,0 STARLINK-4721,1 53796U 22111Z   23168.92810391  .00002496  00000-0  17484-3 0  9998,2 53796  53.2177  43.9379 0001015  96.8066 263.3042 15.08836067 43678,6917.892,95.438,540.46,539.055,0.0
53796.0,STARLINK-4721,PAYLOAD,2023-06-18 01:27:14,15.08847933,0.0001052,53.2177,43.3431,93.3442,266.7671,3.6374e-07,-2.82e-06,0.0,0 STARLINK-4721,1 53796U 22111Z   23169.06058061 -.00000282  00000-0  36374-6 0  9996,2 53796  53.2177  43.3431 0001052  93.3442 266.7671 15.08847933 43693,6917.856,95.437,540.449,538.993,0.0
53796.0,STARLINK-4721,PAYLOAD,2023-06-18 18:56:29,15.08831889,0.0001046,53.2177,40.0724,90.4835,269.6277,3.4235e-05,2.57e-06,0.0,0 STARLINK-4721,1 53796U 22111Z   23169.78922966  .00000257  00000-0  34235-4 0  9992,2 53796  53.2177  40.0724 0001046  90.4835 269.6277 15.08831889 43809,6917.905,95.438,540.494,539.047,0.0
53796.0,STARLINK-4721,PAYLOAD,2023-06-19 01:18:01,15.0883403,0.0001042,53.2177,38.8829,90.2126,269.8986,3.6372e-05,2.91e-06,0.0,0 STARLINK-4721,1 53796U 22111Z   23170.05418912  .00000291  00000-0  36372-4 0  9997,2 53796  53.2177  38.8829 0001042  90.2126 269.8986 15.08834030 43098,6917.899,95.438,540.484,539.043,0.0
53796.0,STARLINK-4721,PAYLOAD,2023-06-20 07:30:21,15.08839644,0.0001066,53.2181,33.2325,88.2051,271.9063,-3.1514e-05,-7.89e-06,0.0,0 STARLINK-4721,1 53796U 22111Z   23171.31274993 -.00000789  00000-0 -31514-4 0  9993,2 53796  53.2181  33.2325 0001066  88.2051 271.9063 15.08839644 43280,6917.881,95.438,540.484,539.009,0.0
53796.0,STARLINK-4721,PAYLOAD,2023-06-20 20:13:26,15.08835148,9.92e-05,53.2177,30.8542,94.0672,266.0434,1.5742e-05,-3.7e-07,0.0,0 STARLINK-4721,1 53796U 22111Z   23171.84267241 -.00000037  00000-0  15742-4 0  9999,2 53796  53.2177  30.8542 0000992  94.0672 266.0434 15.08835148 44115,6917.895,95.438,540.446,539.074,0.0
53796.0,STARLINK-4721,PAYLOAD,2023-06-21 00:59:36,15.08822368,0.0001064,53.218,29.9623,92.1518,267.9596,0.00018996,2.735e-05,0.0,0 STARLINK-4721,1 53796U 22111Z   23172.04139511  .00002735  00000-0  18996-3 0  9999,2 53796  53.2180  29.9623 0001064  92.1518 267.9596 15.08822368 43395,6917.934,95.439,540.535,539.063,0.0
53796.0,STARLINK-4721,PAYLOAD,2023-06-21 13:42:41,15.08834813,0.0001012,53.2178,27.5835,99.9474,260.1632,2.345e-05,8.5e-07,0.0,0 STARLINK-4721,1 53796U 22111Z   23172.57131402  .00000085  00000-0  23450-4 0  9996,2 53796  53.2178  27.5835 0001012  99.9474 260.1632 15.08834813 44227,6917.896,95.438,540.461,539.061,0.0
53796.0,STARLINK-4721,PAYLOAD,2023-06-21 18:28:51,15.08833999,9.93e-05,53.2179,26.6914,101.7103,258.4001,2.6337e-05,1.31e-06,0.0,0 STARLINK-4721,1 53796U 22111Z   23172.77003507  .00000131  00000-0  26337-4 0  9991,2 53796  53.2179  26.6914 0000993 101.7103 258.4001 15.08833999 43508,6917.899,95.438,540.451,539.077,0.0
53796.0,STARLINK-4721,PAYLOAD,2023-06-21 20:04:14,15.08835842,9.84e-05,53.2177,26.394,99.0973,261.013,2.8364e-05,1.64e-06,0.0,0 STARLINK-4721,1 53796U 22111Z   23172.83627420  .00000164  00000-0  28364-4 0  9992,2 53796  53.2177  26.3940 0000984  99.0973 261.0130 15.08835842 44262,6917.893,95.438,540.439,539.077,0.0
53796.0,STARLINK-4721,PAYLOAD,2023-06-22 18:19:37,15.08841003,7.76e-05,53.217,22.2309,107.0036,253.1041,8.1383e-05,1.008e-05,0.0,0 STARLINK-4721,1 53796U 22111Z   23173.76362965  .00001008  00000-0  81383-4 0  9993,2 53796  53.2170  22.2309 0000776 107.0036 253.1041 15.08841003 43659,6917.877,95.437,540.279,539.205,0.0
53796.0,STARLINK-4721,PAYLOAD,2023-06-23 07:02:43,15.08837775,8.12e-05,53.2172,19.851,103.5877,256.5205,2.2225e-06,-2.52e-06,0.0,0 STARLINK-4721,1 53796U 22111Z   23174.29355422 -.00000252  00000-0  22225-5 0  9994,2 53796  53.2172  19.8510 0000812 103.5877 256.5205 15.08837775 43731,6917.887,95.438,540.314,539.19,0.0
53796.0,STARLINK-4721,PAYLOAD,2023-06-24 13:15:02,15.08841742,0.0001089,53.2172,14.2026,87.9105,272.2012,5.9721e-05,6.63e-06,0.0,0 STARLINK-4721,1 53796U 22111Z   23175.55211206  .00000663  00000-0  59721-4 0  9990,2 53796  53.2172  14.2026 0001089  87.9105 272.2012 15.08841742 43929,6917.875,95.437,540.493,538.987,0.0
53796.0,STARLINK-4721,PAYLOAD,2023-06-25 16:16:35,15.08879186,0.0001059,53.2172,9.1465,73.0612,287.0496,-0.0006016,-9.86e-05,0.0,0 STARLINK-4721,1 53796U 22111Z   23176.67818679 -.00009860  00000-0 -60160-3 0  9999,2 53796  53.2172   9.1465 0001059  73.0612 287.0496 15.08879186 44097,6917.761,95.435,540.358,538.893,0.0
53796.0,STARLINK-4721,PAYLOAD,2023-06-25 22:38:08,15.08839839,7.7e-05,53.217,7.9565,86.2126,273.8954,8.9374e-06,-1.45e-06,0.0,0 STARLINK-4721,1 53796U 22111Z   23176.94315366 -.00000145  00000-0  89374-5 0  9990,2 53796  53.2170   7.9565 0000770  86.2126 273.8954 15.08839839 44135,6917.881,95.438,540.279,539.213,0.0
53796.0,STARLINK-4721,PAYLOAD,2023-06-26 16:07:23,15.08835417,7.47e-05,53.2169,4.6858,84.0955,276.0122,-3.1312e-05,-7.86e-06,0.0,0 STARLINK-4721,1 53796U 22111Z   23177.67179894 -.00000786  00000-0 -31312-4 0  9995,2 53796  53.2169   4.6858 0000747  84.0955 276.0122 15.08835417 44244,6917.894,95.438,540.276,539.243,0.0
53796.0,STARLINK-4721,PAYLOAD,2023-06-27 19:08:57,15.08831102,9.01e-05,53.2181,359.6313,88.5242,271.5854,-6.7028e-06,-3.94e-06,0.0,0 STARLINK-4721,1 53796U 22111Z   23178.79788295 -.00000394  00000-0 -67028-5 0  9999,2 53796  53.2181 359.6313 0000901  88.5242 271.5854 15.08831102 44415,6917.908,95.438,540.396,539.149,0.0
